[{"OBJECT_NAME":"STARLINK-11308 [DTC]","OBJECT_ID":"2024-175D","EPOCH":"2026-03-09T05:14:15.021024","MEAN_MOTION":15.69705818,"ECCENTRICITY":0.00012101,"INCLINATION":53.1588,"RA_OF_ASC_NODE":58.5027,"ARG_OF_PERICENTER":96.8002,"MEAN_ANOMALY":263.3154,"EPHEMERIS_TYPE":0,"CLASSIFICATION_TYPE":"U","NORAD_CAT_ID":61246,"ELEMENT_SET_NO":999,"REV_AT_EPOCH":8329,"BSTAR":-9.844118e-6,"MEAN_MOTION_DOT":-1.781e-5,"MEAN_MOTION_DDOT":0},{"OBJECT_NAME":"H-2A R\/B","OBJECT_ID":"2024-176B","EPOCH":"2026-03-09T21:03:59.315040","MEAN_MOTION":15.71096114,"ECCENTRICITY":0.00080006,"INCLINATION":97.2628,"RA_OF_ASC_NODE":207.174,"ARG_OF_PERICENTER":279.669,"MEAN_ANOMALY":80.367,"EPHEMERIS_TYPE":0,"CLASSIFICATION_TYPE":"U","NORAD_CAT_ID":61440,"ELEMENT_SET_NO":999,"REV_AT_EPOCH":8169,"BSTAR":0.00086786138,"MEAN_MOTION_DOT":0.00110274,"MEAN_MOTION_DDOT":0}]
